CCSDS_OMM_VERS = 2.0
CREATION_DATE  = 
ORIGINATOR     = 

OBJECT_NAME    = HULIANWANG DIGUI-112
OBJECT_ID      = 2025-285H
CENTER_NAME    = EARTH
REF_FRAME      = TEME
TIME_SYSTEM    = UTC
MEAN_ELEMENT_THEORY = SGP/SGP4

EPOCH          = 2025-12-18T14:26:35.024928
MEAN_MOTION    = 14.03661022
ECCENTRICITY   = .0006484
INCLINATION    = 50.0090
RA_OF_ASC_NODE = 93.3155
ARG_OF_PERICENTER = 323.5814
MEAN_ANOMALY   = 36.4649

EPHEMERIS_TYPE = 0
CLASSIFICATION_TYPE = U
NORAD_CAT_ID   = 66922
ELEMENT_SET_NO = 999
REV_AT_EPOCH   = 173
BSTAR          = -.1742274E-5
MEAN_MOTION_DOT = -.154E-5
MEAN_MOTION_DDOT = 0

CCSDS_OMM_VERS = 2.0
CREATION_DATE  = 
ORIGINATOR     = 

OBJECT_NAME    = HULIANWANG DIGUI-113
OBJECT_ID      = 2025-285J
CENTER_NAME    = EARTH
REF_FRAME      = TEME
TIME_SYSTEM    = UTC
MEAN_ELEMENT_THEORY = SGP/SGP4

EPOCH          = 2025-12-18T14:25:03.177408
MEAN_MOTION    = 14.03700861
ECCENTRICITY   = .00050469
INCLINATION    = 50.0099
RA_OF_ASC_NODE = 93.3111
ARG_OF_PERICENTER = 318.2142
MEAN_ANOMALY   = 41.8377

EPHEMERIS_TYPE = 0
CLASSIFICATION_TYPE = U
NORAD_CAT_ID   = 66923
ELEMENT_SET_NO = 999
REV_AT_EPOCH   = 173
BSTAR          = .21434974E-3
MEAN_MOTION_DOT = .188E-5
MEAN_MOTION_DDOT = 0

CCSDS_OMM_VERS = 2.0
CREATION_DATE  = 
ORIGINATOR     = 

OBJECT_NAME    = CZ-8A R/B
OBJECT_ID      = 2025-285K
CENTER_NAME    = EARTH
REF_FRAME      = TEME
TIME_SYSTEM    = UTC
MEAN_ELEMENT_THEORY = SGP/SGP4

EPOCH          = 2025-12-18T14:22:44.441472
MEAN_MOTION    = 14.30504043
ECCENTRICITY   = .01192734
INCLINATION    = 50.0074
RA_OF_ASC_NODE = 91.2126
ARG_OF_PERICENTER = 127.4014
MEAN_ANOMALY   = 233.7830

EPHEMERIS_TYPE = 0
CLASSIFICATION_TYPE = U
NORAD_CAT_ID   = 66924
ELEMENT_SET_NO = 999
REV_AT_EPOCH   = 176
BSTAR          = .51874582E-4
MEAN_MOTION_DOT = -.2E-6
MEAN_MOTION_DDOT = 0

CCSDS_OMM_VERS = 2.0
CREATION_DATE  = 
ORIGINATOR     = 

OBJECT_NAME    = STARLINK-35945
OBJECT_ID      = 2025-286A
CENTER_NAME    = EARTH
REF_FRAME      = TEME
TIME_SYSTEM    = UTC
MEAN_ELEMENT_THEORY = SGP/SGP4

EPOCH          = 2025-12-18T14:00:03.000384
MEAN_MOTION    = 15.82654019
ECCENTRICITY   = .00009564
INCLINATION    = 53.1564
RA_OF_ASC_NODE = 21.0808
ARG_OF_PERICENTER = 75.8079
MEAN_ANOMALY   = 26.8226

EPHEMERIS_TYPE = 0
CLASSIFICATION_TYPE = U
NORAD_CAT_ID   = 66925
ELEMENT_SET_NO = 999
REV_AT_EPOCH   = 293
BSTAR          = -.66053839E-2
MEAN_MOTION_DOT = -.1253607E-1
MEAN_MOTION_DDOT = 0

CCSDS_OMM_VERS = 2.0
CREATION_DATE  = 
ORIGINATOR     = 

OBJECT_NAME    = STARLINK-35942
OBJECT_ID      = 2025-286B
CENTER_NAME    = EARTH
REF_FRAME      = TEME
TIME_SYSTEM    = UTC
MEAN_ELEMENT_THEORY = SGP/SGP4

EPOCH          = 2025-12-18T14:00:03.000384
MEAN_MOTION    = 15.82643093
ECCENTRICITY   = .00008527
INCLINATION    = 53.1563
RA_OF_ASC_NODE = 21.0708
ARG_OF_PERICENTER = 76.9885
MEAN_ANOMALY   = 30.2554

EPHEMERIS_TYPE = 0
CLASSIFICATION_TYPE = U
NORAD_CAT_ID   = 66926
ELEMENT_SET_NO = 999
REV_AT_EPOCH   = 293
BSTAR          = -.66704503E-2
MEAN_MOTION_DOT = -.1263871E-1
MEAN_MOTION_DDOT = 0

CCSDS_OMM_VERS = 2.0
CREATION_DATE  = 
ORIGINATOR     = 

OBJECT_NAME    = STARLINK-35943
OBJECT_ID      = 2025-286C
CENTER_NAME    = EARTH
REF_FRAME      = TEME
TIME_SYSTEM    = UTC
MEAN_ELEMENT_THEORY = SGP/SGP4

EPOCH          = 2025-12-18T14:00:03.000384
MEAN_MOTION    = 15.82649653
ECCENTRICITY   = .00010675
INCLINATION    = 53.1564
RA_OF_ASC_NODE = 21.0668
ARG_OF_PERICENTER = 63.7388
MEAN_ANOMALY   = 45.6025

EPHEMERIS_TYPE = 0
CLASSIFICATION_TYPE = U
NORAD_CAT_ID   = 66927
ELEMENT_SET_NO = 999
REV_AT_EPOCH   = 293
BSTAR          = -.67084095E-2
MEAN_MOTION_DOT = -.1270689E-1
MEAN_MOTION_DDOT = 0

CCSDS_OMM_VERS = 2.0
CREATION_DATE  = 
ORIGINATOR     = 

OBJECT_NAME    = STARLINK-35944
OBJECT_ID      = 2025-286D
CENTER_NAME    = EARTH
REF_FRAME      = TEME
TIME_SYSTEM    = UTC
MEAN_ELEMENT_THEORY = SGP/SGP4

EPOCH          = 2025-12-18T14:00:03.000384
MEAN_MOTION    = 15.82641162
ECCENTRICITY   = .00010108
INCLINATION    = 53.1563
RA_OF_ASC_NODE = 21.0753
ARG_OF_PERICENTER = 60.8028
MEAN_ANOMALY   = 44.3066

EPHEMERIS_TYPE = 0
CLASSIFICATION_TYPE = U
NORAD_CAT_ID   = 66928
ELEMENT_SET_NO = 999
REV_AT_EPOCH   = 293
BSTAR          = -.66550597E-2
MEAN_MOTION_DOT = -.1261284E-1
MEAN_MOTION_DDOT = 0

CCSDS_OMM_VERS = 2.0
CREATION_DATE  = 
ORIGINATOR     = 

OBJECT_NAME    = STARLINK-36169
OBJECT_ID      = 2025-286E
CENTER_NAME    = EARTH
REF_FRAME      = TEME
TIME_SYSTEM    = UTC
MEAN_ELEMENT_THEORY = SGP/SGP4

EPOCH          = 2025-12-18T14:00:03.000384
MEAN_MOTION    = 15.82646260
ECCENTRICITY   = .00010676
INCLINATION    = 53.1563
RA_OF_ASC_NODE = 21.0619
ARG_OF_PERICENTER = 52.0484
MEAN_ANOMALY   = 59.5331

EPHEMERIS_TYPE = 0
CLASSIFICATION_TYPE = U
NORAD_CAT_ID   = 66929
ELEMENT_SET_NO = 999
REV_AT_EPOCH   = 293
BSTAR          = -.67345551E-2
MEAN_MOTION_DOT = -.1274874E-1
MEAN_MOTION_DDOT = 0

CCSDS_OMM_VERS = 2.0
CREATION_DATE  = 
ORIGINATOR     = 

OBJECT_NAME    = STARLINK-36206
OBJECT_ID      = 2025-286F
CENTER_NAME    = EARTH
REF_FRAME      = TEME
TIME_SYSTEM    = UTC
MEAN_ELEMENT_THEORY = SGP/SGP4

EPOCH          = 2025-12-18T14:00:03.000384
MEAN_MOTION    = 15.82656891
ECCENTRICITY   = .00009205
INCLINATION    = 53.1561
RA_OF_ASC_NODE = 21.0574
ARG_OF_PERICENTER = 71.5911
MEAN_ANOMALY   = 42.0511

EPHEMERIS_TYPE = 0
CLASSIFICATION_TYPE = U
NORAD_CAT_ID   = 66930
ELEMENT_SET_NO = 999
REV_AT_EPOCH   = 293
BSTAR          = -.67996046E-2
MEAN_MOTION_DOT = -.1286202E-1
MEAN_MOTION_DDOT = 0

CCSDS_OMM_VERS = 2.0
CREATION_DATE  = 
ORIGINATOR     = 

OBJECT_NAME    = STARLINK-36130
OBJECT_ID      = 2025-286G
CENTER_NAME    = EARTH
REF_FRAME      = TEME
TIME_SYSTEM    = UTC
MEAN_ELEMENT_THEORY = SGP/SGP4

EPOCH          = 2025-12-18T14:00:03.000384
MEAN_MOTION    = 15.82648858
ECCENTRICITY   = .00009716
INCLINATION    = 53.1562
RA_OF_ASC_NODE = 21.0528
ARG_OF_PERICENTER = 66.9503
MEAN_ANOMALY   = 48.9816

EPHEMERIS_TYPE = 0
CLASSIFICATION_TYPE = U
NORAD_CAT_ID   = 66931
ELEMENT_SET_NO = 999
REV_AT_EPOCH   = 293
BSTAR          = -.681614E-2
MEAN_MOTION_DOT = -.1288551E-1
MEAN_MOTION_DDOT = 0

CCSDS_OMM_VERS = 2.0
CREATION_DATE  = 
ORIGINATOR     = 

OBJECT_NAME    = STARLINK-36177
OBJECT_ID      = 2025-286H
CENTER_NAME    = EARTH
REF_FRAME      = TEME
TIME_SYSTEM    = UTC
MEAN_ELEMENT_THEORY = SGP/SGP4

EPOCH          = 2025-12-18T14:00:03.000384
MEAN_MOTION    = 15.82651921
ECCENTRICITY   = .00010919
INCLINATION    = 53.1560
RA_OF_ASC_NODE = 21.0480
ARG_OF_PERICENTER = 61.7267
MEAN_ANOMALY   = 56.4418

EPHEMERIS_TYPE = 0
CLASSIFICATION_TYPE = U
NORAD_CAT_ID   = 66932
ELEMENT_SET_NO = 999
REV_AT_EPOCH   = 293
BSTAR          = -.68799835E-2
MEAN_MOTION_DOT = -.12994E-1
MEAN_MOTION_DDOT = 0

CCSDS_OMM_VERS = 2.0
CREATION_DATE  = 
ORIGINATOR     = 

OBJECT_NAME    = STARLINK-36157
OBJECT_ID      = 2025-286J
CENTER_NAME    = EARTH
REF_FRAME      = TEME
TIME_SYSTEM    = UTC
MEAN_ELEMENT_THEORY = SGP/SGP4

EPOCH          = 2025-12-18T14:00:03.000384
MEAN_MOTION    = 15.82648960
ECCENTRICITY   = .00009687
INCLINATION    = 53.1561
RA_OF_ASC_NODE = 21.0435
ARG_OF_PERICENTER = 69.8954
MEAN_ANOMALY   = 50.4882

EPHEMERIS_TYPE = 0
CLASSIFICATION_TYPE = U
NORAD_CAT_ID   = 66933
ELEMENT_SET_NO = 999
REV_AT_EPOCH   = 293
BSTAR          = -.69099593E-2
MEAN_MOTION_DOT = -.1304136E-1
MEAN_MOTION_DDOT = 0

