HULIANWANG DIGUI-112    
1 66922U 25285H   25352.60179427 -.00000154  00000+0 -17423-5 0  9993
2 66922  50.0090  93.3155 0006484 323.5814  36.4649 14.03661022  1733
HULIANWANG DIGUI-113    
1 66923U 25285J   25352.60073122  .00000188  00000+0  21435-3 0  9990
2 66923  50.0099  93.3111 0005046 318.2142  41.8377 14.03700861  1736
CZ-8A R/B               
1 66924U 25285K   25352.59912548 -.00000020  00000+0  51875-4 0  9991
2 66924  50.0074  91.2126 0119273 127.4014 233.7830 14.30504043  1762
STARLINK-35945          
1 66925U 25286A   25352.58336806 -.01253607  00000+0 -66054-2 0  9995
2 66925  53.1564  21.0808 0000956  75.8079  26.8226 15.82654019  2930
STARLINK-35942          
1 66926U 25286B   25352.58336806 -.01263871  00000+0 -66705-2 0  9993
2 66926  53.1563  21.0708 0000852  76.9885  30.2554 15.82643093  2934
STARLINK-35943          
1 66927U 25286C   25352.58336806 -.01270689  00000+0 -67084-2 0  9990
2 66927  53.1564  21.0668 0001067  63.7388  45.6025 15.82649653  2933
STARLINK-35944          
1 66928U 25286D   25352.58336806 -.01261284  00000+0 -66551-2 0  9990
2 66928  53.1563  21.0753 0001010  60.8028  44.3066 15.82641162  2933
STARLINK-36169          
1 66929U 25286E   25352.58336806 -.01274874  00000+0 -67346-2 0  9993
2 66929  53.1563  21.0619 0001067  52.0484  59.5331 15.82646260  2933
STARLINK-36206          
1 66930U 25286F   25352.58336806 -.01286202  00000+0 -67996-2 0  9994
2 66930  53.1561  21.0574 0000920  71.5911  42.0511 15.82656891  2939
STARLINK-36130          
1 66931U 25286G   25352.58336806 -.01288551  00000+0 -68161-2 0  9999
2 66931  53.1562  21.0528 0000971  66.9503  48.9816 15.82648858  2938
STARLINK-36177          
1 66932U 25286H   25352.58336806 -.01299400  00000+0 -68800-2 0  9995
2 66932  53.1560  21.0480 0001091  61.7267  56.4418 15.82651921  2935
STARLINK-36157          
1 66933U 25286J   25352.58336806 -.01304136  00000+0 -69100-2 0  9993
2 66933  53.1561  21.0435 0000968  69.8954  50.4882 15.82648960  2939
